NORAD_CAT_ID,OBJECT_NAME,OBJECT_TYPE,EPOCH,MEAN_MOTION,ECCENTRICITY,INCLINATION,RA_OF_ASC_NODE,ARG_OF_PERICENTER,MEAN_ANOMALY,BSTAR,MEAN_MOTION_DOT,MEAN_MOTION_DDOT,TLE_LINE0,TLE_LINE1,TLE_LINE2,SEMIMAJOR_AXIS,PERIOD,APOGEE,PERIGEE,DECAYED
56476.0,STARLINK-5545,PAYLOAD,2023-06-20 14:54:26,15.69932901,0.000315,69.9972,130.3203,264.5922,95.4915,1.9126e-05,2.088e-05,0.0,0 STARLINK-5545,1 56476U 23064AE  23171.62113873  .00002088  00000-0  19126-4 0  9999,2 56476  69.9972 130.3203 0003150 264.5922  95.4915 15.69932901  6793,6737.226,91.724,361.213,356.969,0.0
56476.0,STARLINK-5545,PAYLOAD,2023-06-20 21:01:27,15.69931143,0.0002841,69.9964,129.6021,260.3965,99.691,1.4955e-05,1.586e-05,0.0,0 STARLINK-5545,1 56476U 23064AE  23171.87600777  .00001586  00000-0  14955-4 0  9997,2 56476  69.9964 129.6021 0002841 260.3965  99.6910 15.69931143  6484,6737.231,91.724,361.01,357.182,0.0
56476.0,STARLINK-5545,PAYLOAD,2023-06-21 00:04:57,15.6991971,0.0003376,69.9969,129.2442,260.1972,99.8843,2.1015e-06,4e-07,0.0,0 STARLINK-5545,1 56476U 23064AE  23172.00344896  .00000040  00000-0  21015-5 0  9990,2 56476  69.9969 129.2442 0003376 260.1972  99.8843 15.69919710  6856,6737.264,91.724,361.403,356.854,0.0
56476.0,STARLINK-5545,PAYLOAD,2023-06-21 07:43:43,15.69922155,0.0003228,69.9977,128.3503,264.6085,95.4742,4.5934e-06,3.4e-06,0.0,0 STARLINK-5545,1 56476U 23064AE  23172.32203176  .00000340  00000-0  45934-5 0  9999,2 56476  69.9977 128.3503 0003228 264.6085  95.4742 15.69922155  6557,6737.257,91.724,361.296,356.947,0.0
56476.0,STARLINK-5545,PAYLOAD,2023-06-21 23:01:14,15.69946162,0.000309,69.9978,126.5589,265.7336,94.3506,-2.7024e-05,-3.464e-05,0.0,0 STARLINK-5545,1 56476U 23064AE  23172.95919315 -.00003464  00000-0 -27024-4 0  9998,2 56476  69.9978 126.5589 0003090 265.7336  94.3506 15.69946162  7001,6737.188,91.723,361.135,356.971,0.0
56476.0,STARLINK-5545,PAYLOAD,2023-06-22 08:11:45,15.6991962,0.0003447,69.9968,125.4823,265.6421,94.4381,1.4593e-05,1.542e-05,0.0,0 STARLINK-5545,1 56476U 23064AE  23173.34150001  .00001542  00000-0  14593-4 0  9991,2 56476  69.9968 125.4823 0003447 265.6421  94.4381 15.69919620  7066,6737.264,91.724,361.451,356.807,0.0
56476.0,STARLINK-5545,PAYLOAD,2023-06-22 14:18:45,15.69933332,0.0003491,69.9985,124.7668,264.864,95.2157,1.2846e-05,1.333e-05,0.0,0 STARLINK-5545,1 56476U 23064AE  23173.59635796  .00001333  00000-0  12846-4 0  9994,2 56476  69.9985 124.7668 0003491 264.8640  95.2157 15.69933332  7108,6737.225,91.724,361.442,356.738,0.0
56476.0,STARLINK-5545,PAYLOAD,2023-06-22 23:29:16,15.69922405,0.0003218,69.9978,123.6915,260.7499,99.3333,1.1841e-05,1.211e-05,0.0,0 STARLINK-5545,1 56476U 23064AE  23173.97866561  .00001211  00000-0  11841-4 0  9991,2 56476  69.9978 123.6915 0003218 260.7499  99.3333 15.69922405  7163,6737.256,91.724,361.289,356.953,0.0
56476.0,STARLINK-5545,PAYLOAD,2023-06-23 23:57:18,15.69920101,0.0003674,69.997,120.8231,265.0233,95.0543,2.4929e-06,8.7e-07,0.0,0 STARLINK-5545,1 56476U 23064AE  23174.99813640  .00000087  00000-0  24929-5 0  9996,2 56476  69.9970 120.8231 0003674 265.0233  95.0543 15.69920101  7320,6737.263,91.724,361.603,356.652,0.0
56476.0,STARLINK-5545,PAYLOAD,2023-06-24 06:04:19,15.69926191,0.0003469,69.996,120.1058,260.9799,99.1005,8.9992e-06,8.69e-06,0.0,0 STARLINK-5545,1 56476U 23064AE  23175.25299846  .00000869  00000-0  89992-5 0  9991,2 56476  69.9960 120.1058 0003469 260.9799  99.1005 15.69926191  7369,6737.245,91.724,361.447,356.773,0.0
56476.0,STARLINK-5545,PAYLOAD,2023-06-25 06:32:20,15.69931015,0.0003251,69.9987,117.2448,253.3308,106.7531,1.3371e-05,1.396e-05,0.0,0 STARLINK-5545,1 56476U 23064AE  23176.27246329  .00001396  00000-0  13371-4 0  9995,2 56476  69.9987 117.2448 0003251 253.3308 106.7531 15.69931015  7527,6737.231,91.724,361.287,356.906,0.0
56476.0,STARLINK-5545,PAYLOAD,2023-06-25 23:21:37,15.6991991,0.0003237,69.9988,115.272,260.8615,99.2215,1.6389e-05,1.758e-05,0.0,0 STARLINK-5545,1 56476U 23064AE  23176.97335343  .00001758  00000-0  16389-4 0  9991,2 56476  69.9988 115.2720 0003237 260.8615  99.2215 15.69919910  7634,6737.263,91.724,361.309,356.947,0.0
56476.0,STARLINK-5545,PAYLOAD,2023-06-27 05:56:40,15.69918389,0.0002918,69.999,111.69,274.2893,85.7969,-1.1845e-05,-1.636e-05,0.0,0 STARLINK-5545,1 56476U 23064AE  23178.24768908 -.00001636  00000-0 -11845-4 0  9999,2 56476  69.9990 111.6900 0002918 274.2893  85.7969 15.69918389  7836,6737.267,91.725,361.098,357.167,0.0
56476.0,STARLINK-5545,PAYLOAD,2023-06-28 06:24:42,15.69923712,0.0003237,69.9972,108.8229,264.0536,96.0291,1.1865e-05,1.214e-05,0.0,0 STARLINK-5545,1 56476U 23064AE  23179.26715593  .00001214  00000-0  11865-4 0  9996,2 56476  69.9972 108.8229 0003237 264.0536  96.0291 15.69923712  7990,6737.252,91.724,361.298,356.936,0.0
56476.0,STARLINK-5545,PAYLOAD,2023-06-29 06:52:44,15.69915129,0.0003529,69.9991,105.9557,262.9275,97.152,-1.5916e-05,-2.125e-05,0.0,0 STARLINK-5545,1 56476U 23064AE  23180.28662454 -.00002125  00000-0 -15916-4 0  9992,2 56476  69.9991 105.9557 0003529 262.9275  97.1520 15.69915129  8153,6737.277,91.725,361.519,356.764,0.0
56476.0,STARLINK-5545,PAYLOAD,2023-06-30 11:56:01,15.69919342,0.0003174,69.9995,102.5526,268.999,91.0842,-1.1006e-06,-3.45e-06,0.0,0 STARLINK-5545,1 56476U 23064AE  23181.49724190 -.00000345  00000-0 -11006-5 0  9991,2 56476  69.9995 102.5526 0003174 268.9990  91.0842 15.69919342  8344,6737.265,91.724,361.268,356.991,0.0
56476.0,STARLINK-5545,PAYLOAD,2023-07-01 06:17:03,15.69907125,0.0003153,69.9992,100.4025,280.2178,79.8662,-3.3646e-05,-4.253e-05,0.0,0 STARLINK-5545,1 56476U 23064AE  23182.26184897 -.00004253  00000-0 -33646-4 0  9996,2 56476  69.9992 100.4025 0003153 280.2178  79.8662 15.69907125  8467,6737.3,91.725,361.289,357.04,0.0
56476.0,STARLINK-5545,PAYLOAD,2023-07-02 02:09:49,15.69928258,0.0003648,69.9989,98.0743,275.489,84.5889,1.8803e-05,2.049e-05,0.0,0 STARLINK-5545,1 56476U 23064AE  23183.09015605  .00002049  00000-0  18803-4 0  9995,2 56476  69.9989  98.0743 0003648 275.4890  84.5889 15.69928258  8596,6737.239,91.724,361.562,356.647,0.0
56476.0,STARLINK-5545,PAYLOAD,2023-07-02 22:02:36,15.69919127,0.0003267,69.999,95.7443,273.7299,86.3523,-1.2659e-06,-3.65e-06,0.0,0 STARLINK-5545,1 56476U 23064AE  23183.91847952 -.00000365  00000-0 -12659-5 0  9999,2 56476  69.9990  95.7443 0003267 273.7299  86.3523 15.69919127  8725,6737.265,91.724,361.331,356.929,0.0
56476.0,STARLINK-5545,PAYLOAD,2023-07-04 03:05:54,15.69921977,0.0003133,69.998,92.3417,267.2825,92.8013,1.1847e-05,1.212e-05,0.0,0 STARLINK-5545,1 56476U 23064AE  23185.12909756  .00001212  00000-0  11847-4 0  9992,2 56476  69.9980  92.3417 0003133 267.2825  92.8013 15.69921977  8916,6737.257,91.724,361.233,357.011,0.0
56476.0,STARLINK-5545,PAYLOAD,2023-07-05 05:05:41,15.69920566,0.0003467,69.9972,89.2948,264.4918,95.5882,1.4274e-05,1.504e-05,0.0,0 STARLINK-5545,1 56476U 23064AE  23186.21228197  .00001504  00000-0  14274-4 0  9997,2 56476  69.9972  89.2948 0003467 264.4918  95.5882 15.69920566  9089,6737.261,91.724,361.462,356.79,0.0
56476.0,STARLINK-5545,PAYLOAD,2023-07-05 11:12:41,15.69930357,0.0003512,69.9971,88.5789,263.31,96.7696,5.631e-06,4.64e-06,0.0,0 STARLINK-5545,1 56476U 23064AE  23186.46714345  .00000464  00000-0  56310-5 0  9991,2 56476  69.9971  88.5789 0003512 263.3100  96.7696 15.69930357  9125,6737.233,91.724,361.464,356.732,0.0
56476.0,STARLINK-5545,PAYLOAD,2023-07-06 16:15:58,15.69927617,0.0003333,69.9967,85.1761,256.1248,103.9577,7.17e-06,6.49e-06,0.0,0 STARLINK-5545,1 56476U 23064AE  23187.67776281  .00000649  00000-0  71700-5 0  9997,2 56476  69.9967  85.1761 0003333 256.1248 103.9577 15.69927617  9312,6737.241,91.724,361.352,356.861,0.0
56476.0,STARLINK-5545,PAYLOAD,2023-07-07 04:30:00,15.69914787,0.0003326,69.9971,83.7413,266.6412,93.4403,4.0504e-06,2.74e-06,0.0,0 STARLINK-5545,1 56476U 23064AE  23188.18750534  .00000274  00000-0  40504-5 0  9999,2 56476  69.9971  83.7413 0003326 266.6412  93.4403 15.69914787  9399,6737.278,91.725,361.384,356.902,0.0
56476.0,STARLINK-5545,PAYLOAD,2023-07-07 18:15:46,15.69923427,0.0003508,69.997,82.1286,265.1433,94.9362,4.1478e-06,2.86e-06,0.0,0 STARLINK-5545,1 56476U 23064AE  23188.76095001  .00000286  00000-0  41478-5 0  9998,2 56476  69.9970  82.1286 0003508 265.1433  94.9362 15.69923427  9489,6737.253,91.724,361.482,356.755,0.0
56476.0,STARLINK-5545,PAYLOAD,2023-07-08 18:43:49,15.69908463,0.0003693,69.9995,79.2646,268.242,91.8353,-1.5943e-05,-2.128e-05,0.0,0 STARLINK-5545,1 56476U 23064AE  23189.78043075 -.00002128  00000-0 -15943-4 0  9991,2 56476  69.9995  79.2646 0003693 268.2420  91.8353 15.69908463  9645,6737.296,91.725,361.649,356.673,0.0
56476.0,STARLINK-5545,PAYLOAD,2023-07-09 02:22:34,15.69913642,0.0003142,69.9997,78.3684,255.9971,104.0876,-1.097e-05,-1.531e-05,0.0,0 STARLINK-5545,1 56476U 23064AE  23190.09901172 -.00001531  00000-0 -10970-4 0  9990,2 56476  69.9997  78.3684 0003142 255.9971 104.0876 15.69913642  9699,6737.281,91.725,361.263,357.029,0.0
56476.0,STARLINK-5545,PAYLOAD,2023-07-09 10:01:19,15.69926653,0.0003425,69.9995,77.4713,266.9568,93.1236,3.0734e-05,3.485e-05,0.0,0 STARLINK-5545,1 56476U 23064AE  23190.41758178  .00003485  00000-0  30734-4 0  9990,2 56476  69.9995  77.4713 0003425 266.9568  93.1236 15.69926653  9748,6737.244,91.724,361.416,356.801,0.0
56476.0,STARLINK-5545,PAYLOAD,2023-07-09 19:11:50,15.69919933,0.0003273,70.0002,76.4008,258.1072,101.9757,5.4275e-06,4.4e-06,0.0,0 STARLINK-5545,1 56476U 23064AE  23190.79988953  .00000440  00000-0  54275-5 0  9992,2 56476  70.0002  76.4008 0003273 258.1072 101.9757 15.69919933  9806,6737.263,91.724,361.333,356.923,0.0
56476.0,STARLINK-5545,PAYLOAD,2023-07-10 01:18:50,15.69931732,0.0003309,69.9988,75.6823,248.3997,111.6846,8.8436e-06,8.51e-06,0.0,0 STARLINK-5545,1 56476U 23064AE  23191.05474770  .00000851  00000-0  88436-5 0  9991,2 56476  69.9988  75.6823 0003309 248.3997 111.6846 15.69931732  9841,6737.229,91.724,361.324,356.865,0.0
